ONEWEB-0385             
1 49311U 21090AJ  23228.08845248  .00000159  00000+0  35822-3 0  9993
2 49311  87.9223 120.7334 0001765  65.3686 294.7631 13.20769480 94357
ONEWEB-0386             
1 49312U 21090AK  23228.25679012  .00000041  00000+0  69090-4 0  9992
2 49312  87.9228 120.7122 0001657  70.2164 289.9148 13.20768165 94385
ONEWEB-0387             
1 49313U 21090AL  23228.69661818  .00000013  00000+0  46328-6 0  9996
2 49313  87.9247 120.6641 0002176  67.4742 292.6621 13.20767996 94444
ONEWEB-0388             
1 49314U 21090AM  23227.76378382  .00000075  00000+0  15502-3 0  9990
2 49314  87.9290 151.2110 0001794  75.3048 284.8283 13.19727332 91000
ONEWEB-0389             
1 50469U 21132A   23228.42867508 -.00001188  00000+0 -30918-2 0  9992
2 50469  87.9174 211.6335 0002140  70.4374 289.6988 13.17664097 82975
ONEWEB-0390             
1 50470U 21132B   23228.43080221 -.00003115  00000+0 -80565-2 0  9999
2 50470  87.9178 211.6391 0002529  78.8154 281.3262 13.17672923 82973
ONEWEB-0391             
1 50471U 21132C   23228.66073335 -.00004677  00000+0 -12081-1 0  9994
2 50471  87.9181 211.5645 0002173  76.6340 283.5034 13.17677462 83006
ONEWEB-0392             
1 50472U 21132D   23228.38648174  .00001026  00000+0  26094-2 0  9996
2 50472  87.9184 211.6588 0002347  76.8095 283.3298 13.17631471 83009
